{"type": "FeatureCollection", "features": [ {"type": "Feature", "properties": {"norad_id": 57401, "name": "TIANMU-1 09", "group": "weather", "lat": -76.31999143105304, "lon": -167.47963268271442, "alt_km": 492.7784877074955, "timestamp": "2025-12-21T05:44:51.219274+00:00", "meta": {"OBJECT_NAME": "TIANMU-1 09", "OBJECT_ID": "2023-101C", "EPOCH": "2025-12-20T22:20:04.163136", "MEAN_MOTION": 15.28193996, "ECCENTRICITY": 0.00064752, "INCLINATION": 97.281, "RA_OF_ASC_NODE": 43.9057, "ARG_OF_PERICENTER": 61.4641, "MEAN_ANOMALY": 298.725, "EPHEMERIS_TYPE": 0, "CLASSIFICATION_TYPE": "U", "NORAD_CAT_ID": 57401, "ELEMENT_SET_NO": 999, "REV_AT_EPOCH": 13440, "BSTAR": 0.00018307781, "MEAN_MOTION_DOT": 4.96e-05, "MEAN_MOTION_DDOT": 0}, "tle": {"line1": "1 57401U 23101C   25354.93060374  .00004960  00000+0  18308-3 0  9996", "line2": "2 57401  97.2810  43.9057 0006475  61.4641 298.7250 15.28193996134406"}}, "geometry": {"type": "Point", "coordinates": [-167.47963268271442, -76.31999143105304]}}, {"type": "Feature", "properties": {"norad_id": 57402, "name": "TIANMU-1 10", "group": "weather", "lat": 68.79169556515843, "lon": 25.80613515882415, "alt_km": 469.045160333264, "timestamp": "2025-12-21T05:44:51.219284+00:00", "meta": {"OBJECT_NAME": "TIANMU-1 10", "OBJECT_ID": "2023-101D", "EPOCH": "2025-12-20T21:35:06.542592", "MEAN_MOTION": 15.28184655, "ECCENTRICITY": 0.00082177, "INCLINATION": 97.2891, "RA_OF_ASC_NODE": 44.7337, "ARG_OF_PERICENTER": 59.9414, "MEAN_ANOMALY": 300.264, "EPHEMERIS_TYPE": 0, "CLASSIFICATION_TYPE": "U", "NORAD_CAT_ID": 57402, "ELEMENT_SET_NO": 999, "REV_AT_EPOCH": 13439, "BSTAR": 0.00018288207, "MEAN_MOTION_DOT": 4.955e-05, "MEAN_MOTION_DDOT": 0}, "tle": {"line1": "1 57402U 23101D   25354.89938128  .00004955  00000+0  18288-3 0  9994", "line2": "2 57402  97.2891  44.7337 0008217  59.9414 300.2640 15.28184655134394"}}, "geometry": {"type": "Point", "coordinates": [25.80613515882415, 68.79169556515843]}}, {"type": "Feature", "properties": {"norad_id": 57490, "name": "FENGYUN 3F", "group": "weather", "lat": -79.00481846908107, "lon": -168.67394090510746, "alt_km": 833.5033944818633, "timestamp": "2025-12-21T05:44:51.219295+00:00", "meta": {"OBJECT_NAME": "FENGYUN 3F", "OBJECT_ID": "2023-111A", "EPOCH": "2025-12-20T21:44:47.713056", "MEAN_MOTION": 14.19895531, "ECCENTRICITY": 7.636e-05, "INCLINATION": 98.7073, "RA_OF_ASC_NODE": 63.0674, "ARG_OF_PERICENTER": 114.0806, "MEAN_ANOMALY": 246.045, "EPHEMERIS_TYPE": 0, "CLASSIFICATION_TYPE": "U", "NORAD_CAT_ID": 57490, "ELEMENT_SET_NO": 999, "REV_AT_EPOCH": 12356, "BSTAR": 4.5677349e-05, "MEAN_MOTION_DOT": 5.3e-07, "MEAN_MOTION_DDOT": 0}, "tle": {"line1": "1 57490U 23111A   25354.90610779  .00000053  00000+0  45677-4 0  9991", "line2": "2 57490  98.7073  63.0674 0000763 114.0806 246.0450 14.19895531123567"}}, "geometry": {"type": "Point", "coordinates": [-168.67394090510746, -79.00481846908107]}}, {"type": "Feature", "properties": {"norad_id": 58584, "name": "ARKTIKA-M 2", "group": "weather", "lat": 17.514167688088754, "lon": -15.218079684896916, "alt_km": 11403.077073364071, "timestamp": "2025-12-21T05:44:51.219308+00:00", "meta": {"OBJECT_NAME": "ARKTIKA-M 2", "OBJECT_ID": "2023-198A", "EPOCH": "2025-12-20T07:20:06.590112", "MEAN_MOTION": 2.00602824, "ECCENTRICITY": 0.68654675, "INCLINATION": 63.225, "RA_OF_ASC_NODE": 174.0676, "ARG_OF_PERICENTER": 268.0739, "MEAN_ANOMALY": 18.8406, "EPHEMERIS_TYPE": 0, "CLASSIFICATION_TYPE": "U", "NORAD_CAT_ID": 58584, "ELEMENT_SET_NO": 999, "REV_AT_EPOCH": 1473, "BSTAR": 0, "MEAN_MOTION_DOT": 2.01e-06, "MEAN_MOTION_DDOT": 0}, "tle": {"line1": "1 58584U 23198A   25354.30563183  .00000201  00000+0  00000+0 0  9992", "line2": "2 58584  63.2250 174.0676 6865467 268.0739  18.8406  2.00602824 14734"}}, "geometry": {"type": "Point", "coordinates": [-15.218079684896916, 17.514167688088754]}}, {"type": "Feature", "properties": {"norad_id": 58645, "name": "TIANMU-1 11", "group": "weather", "lat": 36.9254411667145, "lon": -159.71243959774458, "alt_km": 492.6095615337408, "timestamp": "2025-12-21T05:44:51.219322+00:00", "meta": {"OBJECT_NAME": "TIANMU-1 11", "OBJECT_ID": "2023-205A", "EPOCH": "2025-12-20T22:49:22.898208", "MEAN_MOTION": 15.24690644, "ECCENTRICITY": 0.00075313, "INCLINATION": 97.3595, "RA_OF_ASC_NODE": 14.43, "ARG_OF_PERICENTER": 275.5417, "MEAN_ANOMALY": 84.4961, "EPHEMERIS_TYPE": 0, "CLASSIFICATION_TYPE": "U", "NORAD_CAT_ID": 58645, "ELEMENT_SET_NO": 999, "REV_AT_EPOCH": 11034, "BSTAR": 0.00017725634, "MEAN_MOTION_DOT": 4.314e-05, "MEAN_MOTION_DDOT": 0}, "tle": {"line1": "1 58645U 23205A   25354.95095947  .00004314  00000+0  17726-3 0  9994", "line2": "2 58645  97.3595  14.4300 0007531 275.5417  84.4961 15.24690644110349"}}, "geometry": {"type": "Point", "coordinates": [-159.71243959774458, 36.9254411667145]}}, {"type": "Feature", "properties": {"norad_id": 58646, "name": "TIANMU-1 12", "group": "weather", "lat": -8.629117280090023, "lon": 15.639746796928373, "alt_km": 496.77951747767565, "timestamp": "2025-12-21T05:44:51.219333+00:00", "meta": {"OBJECT_NAME": "TIANMU-1 12", "OBJECT_ID": "2023-205B", "EPOCH": "2025-12-20T21:54:34.365600", "MEAN_MOTION": 15.24575492, "ECCENTRICITY": 0.00058248, "INCLINATION": 97.3582, "RA_OF_ASC_NODE": 14.1953, "ARG_OF_PERICENTER": 254.2194, "MEAN_ANOMALY": 105.8401, "EPHEMERIS_TYPE": 0, "CLASSIFICATION_TYPE": "U", "NORAD_CAT_ID": 58646, "ELEMENT_SET_NO": 999, "REV_AT_EPOCH": 11032, "BSTAR": 0.0001764715, "MEAN_MOTION_DOT": 4.278e-05, "MEAN_MOTION_DDOT": 0}, "tle": {"line1": "1 58646U 23205B   25354.91289775  .00004278  00000+0  17647-3 0  9996", "line2": "2 58646  97.3582  14.1953 0005824 254.2194 105.8401 15.24575492110324"}}, "geometry": {"type": "Point", "coordinates": [15.639746796928373, -8.629117280090023]}}, {"type": "Feature", "properties": {"norad_id": 58647, "name": "TIANMU-1 13", "group": "weather", "lat": 11.182574887383426, "lon": -163.81490008929057, "alt_km": 491.33866043958733, "timestamp": "2025-12-21T05:44:51.219343+00:00", "meta": {"OBJECT_NAME": "TIANMU-1 13", "OBJECT_ID": "2023-205C", "EPOCH": "2025-12-20T22:42:32.977728", "MEAN_MOTION": 15.24618912, "ECCENTRICITY": 0.00063117, "INCLINATION": 97.361, "RA_OF_ASC_NODE": 14.4325, "ARG_OF_PERICENTER": 230.5558, "MEAN_ANOMALY": 129.5122, "EPHEMERIS_TYPE": 0, "CLASSIFICATION_TYPE": "U", "NORAD_CAT_ID": 58647, "ELEMENT_SET_NO": 999, "REV_AT_EPOCH": 11032, "BSTAR": 0.00018656891, "MEAN_MOTION_DOT": 4.533e-05, "MEAN_MOTION_DDOT": 0}, "tle": {"line1": "1 58647U 23205C   25354.94621502  .00004533  00000+0  18657-3 0  9994", "line2": "2 58647  97.3610  14.4325 0006311 230.5558 129.5122 15.24618912110324"}}, "geometry": {"type": "Point", "coordinates": [-163.81490008929057, 11.182574887383426]}}, {"type": "Feature", "properties": {"norad_id": 58648, "name": "TIANMU-1 14", "group": "weather", "lat": -77.00354446718706, "lon": 160.0341535472224, "alt_km": 494.8748821938452, "timestamp": "2025-12-21T05:44:51.219353+00:00", "meta": {"OBJECT_NAME": "TIANMU-1 14", "OBJECT_ID": "2023-205D", "EPOCH": "2025-12-20T23:53:17.138400", "MEAN_MOTION": 15.24602735, "ECCENTRICITY": 0.000706, "INCLINATION": 97.3542, "RA_OF_ASC_NODE": 13.8219, "ARG_OF_PERICENTER": 236.5985, "MEAN_ANOMALY": 123.4578, "EPHEMERIS_TYPE": 0, "CLASSIFICATION_TYPE": "U", "NORAD_CAT_ID": 58648, "ELEMENT_SET_NO": 999, "REV_AT_EPOCH": 11033, "BSTAR": 0.00018386818, "MEAN_MOTION_DOT": 4.465e-05, "MEAN_MOTION_DDOT": 0}, "tle": {"line1": "1 58648U 23205D   25354.99533725  .00004465  00000+0  18387-3 0  9993", "line2": "2 58648  97.3542  13.8219 0007060 236.5985 123.4578 15.24602735110331"}}, "geometry": {"type": "Point", "coordinates": [160.0341535472224, -77.00354446718706]}}, {"type": "Feature", "properties": {"norad_id": 58660, "name": "TIANMU-1 19", "group": "weather", "lat": -75.1058225101836, "lon": -103.16515122149784, "alt_km": 486.8364303081071, "timestamp": "2025-12-21T05:44:51.219364+00:00", "meta": {"OBJECT_NAME": "TIANMU-1 19", "OBJECT_ID": "2023-208A", "EPOCH": "2025-12-20T22:20:20.916960", "MEAN_MOTION": 15.27987016, "ECCENTRICITY": 0.00045016, "INCLINATION": 97.4395, "RA_OF_ASC_NODE": 105.9525, "ARG_OF_PERICENTER": 216.8411, "MEAN_ANOMALY": 143.2519, "EPHEMERIS_TYPE": 0, "CLASSIFICATION_TYPE": "U", "NORAD_CAT_ID": 58660, "ELEMENT_SET_NO": 999, "REV_AT_EPOCH": 11007, "BSTAR": 0.00024856181, "MEAN_MOTION_DOT": 6.714e-05, "MEAN_MOTION_DDOT": 0}, "tle": {"line1": "1 58660U 23208A   25354.93079765  .00006714  00000+0  24856-3 0  9990", "line2": "2 58660  97.4395 105.9525 0004501 216.8411 143.2519 15.27987016110074"}}, "geometry": {"type": "Point", "coordinates": [-103.16515122149784, -75.1058225101836]}}, {"type": "Feature", "properties": {"norad_id": 58661, "name": "TIANMU-1 20", "group": "weather", "lat": 7.468059960185226, "lon": 105.73594016047187, "alt_km": 483.6470430105828, "timestamp": "2025-12-21T05:44:51.219375+00:00", "meta": {"OBJECT_NAME": "TIANMU-1 20", "OBJECT_ID": "2023-208B", "EPOCH": "2025-12-20T21:51:44.211168", "MEAN_MOTION": 15.29177029, "ECCENTRICITY": 0.00065913, "INCLINATION": 97.4332, "RA_OF_ASC_NODE": 106.3883, "ARG_OF_PERICENTER": 231.6516, "MEAN_ANOMALY": 128.4132, "EPHEMERIS_TYPE": 0, "CLASSIFICATION_TYPE": "U", "NORAD_CAT_ID": 58661, "ELEMENT_SET_NO": 999, "REV_AT_EPOCH": 11014, "BSTAR": 0.00023194534, "MEAN_MOTION_DOT": 6.495e-05, "MEAN_MOTION_DDOT": 0}, "tle": {"line1": "1 58661U 23208B   25354.91092837  .00006495  00000+0  23195-3 0  9995", "line2": "2 58661  97.4332 106.3883 0006591 231.6516 128.4132 15.29177029110141"}}, "geometry": {"type": "Point", "coordinates": [105.73594016047187, 7.468059960185226]}}]}